{"type": "FeatureCollection", "features": [ {"type": "Feature", "properties": {"norad_id": 35018, "name": "COSMOS 2251 DEB", "group": "cosmos-2251-debris", "lat": 42.09478287296285, "lon": -84.52073946776261, "alt_km": 1111.2660123493415, "timestamp": "2025-12-12T09:49:09.127844+00:00", "meta": {"OBJECT_NAME": "COSMOS 2251 DEB", "OBJECT_ID": "1993-036AGF", "EPOCH": "2025-12-11T15:37:13.751904", "MEAN_MOTION": 13.67111419, "ECCENTRICITY": 0.03485154, "INCLINATION": 73.9756, "RA_OF_ASC_NODE": 111.7752, "ARG_OF_PERICENTER": 21.1953, "MEAN_ANOMALY": 340.32, "EPHEMERIS_TYPE": 0, "CLASSIFICATION_TYPE": "U", "NORAD_CAT_ID": 35018, "ELEMENT_SET_NO": 999, "REV_AT_EPOCH": 83171, "BSTAR": 0.0010764193, "MEAN_MOTION_DOT": 1.351e-05, "MEAN_MOTION_DDOT": 0}, "tle": {"line1": "1 35018U 93036AGF 25345.65085361  .00001351  00000+0  10764-2 0  9990", "line2": "2 35018  73.9756 111.7752 0348515  21.1953 340.3200 13.67111419831713"}}, "geometry": {"type": "Point", "coordinates": [-84.52073946776261, 42.09478287296285]}}, {"type": "Feature", "properties": {"norad_id": 35020, "name": "COSMOS 2251 DEB", "group": "cosmos-2251-debris", "lat": 14.289687106574776, "lon": -156.2396763152865, "alt_km": 653.3010105255817, "timestamp": "2025-12-12T09:49:09.127855+00:00", "meta": {"OBJECT_NAME": "COSMOS 2251 DEB", "OBJECT_ID": "1993-036AGH", "EPOCH": "2025-12-11T00:55:30.154944", "MEAN_MOTION": 14.62800781, "ECCENTRICITY": 0.00911638, "INCLINATION": 74.0465, "RA_OF_ASC_NODE": 202.2067, "ARG_OF_PERICENTER": 316.7345, "MEAN_ANOMALY": 42.6686, "EPHEMERIS_TYPE": 0, "CLASSIFICATION_TYPE": "U", "NORAD_CAT_ID": 35020, "ELEMENT_SET_NO": 999, "REV_AT_EPOCH": 88213, "BSTAR": 0.00021287557, "MEAN_MOTION_DOT": 1.119e-05, "MEAN_MOTION_DDOT": 0}, "tle": {"line1": "1 35020U 93036AGH 25345.03854346  .00001119  00000+0  21288-3 0  9998", "line2": "2 35020  74.0465 202.2067 0091163 316.7345  42.6686 14.62800781882137"}}, "geometry": {"type": "Point", "coordinates": [-156.2396763152865, 14.289687106574776]}}, {"type": "Feature", "properties": {"norad_id": 35022, "name": "COSMOS 2251 DEB", "group": "cosmos-2251-debris", "lat": 62.61592247595127, "lon": -3.862665072890932, "alt_km": 686.9452920808144, "timestamp": "2025-12-12T09:49:09.127865+00:00", "meta": {"OBJECT_NAME": "COSMOS 2251 DEB", "OBJECT_ID": "1993-036AGK", "EPOCH": "2025-12-08T16:45:20.077056", "MEAN_MOTION": 14.60807192, "ECCENTRICITY": 0.0046993, "INCLINATION": 74.0257, "RA_OF_ASC_NODE": 329.6569, "ARG_OF_PERICENTER": 170.8022, "MEAN_ANOMALY": 189.4016, "EPHEMERIS_TYPE": 0, "CLASSIFICATION_TYPE": "U", "NORAD_CAT_ID": 35022, "ELEMENT_SET_NO": 999, "REV_AT_EPOCH": 59084, "BSTAR": 0.00059202, "MEAN_MOTION_DOT": 2.907e-05, "MEAN_MOTION_DDOT": 0}, "tle": {"line1": "1 35022U 93036AGK 25342.69814904  .00002907  00000+0  59202-3 0  9998", "line2": "2 35022  74.0257 329.6569 0046993 170.8022 189.4016 14.60807192590843"}}, "geometry": {"type": "Point", "coordinates": [-3.862665072890932, 62.61592247595127]}}, {"type": "Feature", "properties": {"norad_id": 35023, "name": "COSMOS 2251 DEB", "group": "cosmos-2251-debris", "lat": -20.915670503451054, "lon": 39.53366861270274, "alt_km": 586.7994726494353, "timestamp": "2025-12-12T09:49:09.127876+00:00", "meta": {"OBJECT_NAME": "COSMOS 2251 DEB", "OBJECT_ID": "1993-036AGL", "EPOCH": "2025-12-12T01:33:40.320000", "MEAN_MOTION": 14.95069073, "ECCENTRICITY": 0.0033968, "INCLINATION": 74.0374, "RA_OF_ASC_NODE": 213.947, "ARG_OF_PERICENTER": 292.0321, "MEAN_ANOMALY": 218.8741, "EPHEMERIS_TYPE": 0, "CLASSIFICATION_TYPE": "U", "NORAD_CAT_ID": 35023, "ELEMENT_SET_NO": 999, "REV_AT_EPOCH": 88269, "BSTAR": 0.0021055, "MEAN_MOTION_DOT": 0.00023373, "MEAN_MOTION_DDOT": 0}, "tle": {"line1": "1 35023U 93036AGL 25346.06505000  .00023373  00000+0  21055-2 0  9992", "line2": "2 35023  74.0374 213.9470 0033968 292.0321 218.8741 14.95069073882692"}}, "geometry": {"type": "Point", "coordinates": [39.53366861270274, -20.915670503451054]}}, {"type": "Feature", "properties": {"norad_id": 35025, "name": "COSMOS 2251 DEB", "group": "cosmos-2251-debris", "lat": -53.82930440829889, "lon": 40.368990899893994, "alt_km": 609.0606950655583, "timestamp": "2025-12-12T09:49:09.127886+00:00", "meta": {"OBJECT_NAME": "COSMOS 2251 DEB", "OBJECT_ID": "1993-036AGN", "EPOCH": "2025-12-10T22:12:24.909984", "MEAN_MOTION": 14.72692917, "ECCENTRICITY": 0.0085106, "INCLINATION": 73.9386, "RA_OF_ASC_NODE": 66.4818, "ARG_OF_PERICENTER": 339.6869, "MEAN_ANOMALY": 20.0923, "EPHEMERIS_TYPE": 0, "CLASSIFICATION_TYPE": "U", "NORAD_CAT_ID": 35025, "ELEMENT_SET_NO": 999, "REV_AT_EPOCH": 88616, "BSTAR": 0.0005726, "MEAN_MOTION_DOT": 3.833e-05, "MEAN_MOTION_DDOT": 0}, "tle": {"line1": "1 35025U 93036AGN 25344.92528831  .00003833  00000+0  57260-3 0  9991", "line2": "2 35025  73.9386  66.4818 0085106 339.6869  20.0923 14.72692917886163"}}, "geometry": {"type": "Point", "coordinates": [40.368990899893994, -53.82930440829889]}}, {"type": "Feature", "properties": {"norad_id": 35026, "name": "COSMOS 2251 DEB", "group": "cosmos-2251-debris", "lat": -16.54153324181678, "lon": 144.30060646892068, "alt_km": 750.7518053868689, "timestamp": "2025-12-12T09:49:09.127896+00:00", "meta": {"OBJECT_NAME": "COSMOS 2251 DEB", "OBJECT_ID": "1993-036AGP", "EPOCH": "2025-12-11T04:54:48.303936", "MEAN_MOTION": 14.53621651, "ECCENTRICITY": 0.00823008, "INCLINATION": 74.0466, "RA_OF_ASC_NODE": 321.6997, "ARG_OF_PERICENTER": 75.5866, "MEAN_ANOMALY": 300.606, "EPHEMERIS_TYPE": 0, "CLASSIFICATION_TYPE": "U", "NORAD_CAT_ID": 35026, "ELEMENT_SET_NO": 999, "REV_AT_EPOCH": 88121, "BSTAR": 0.00010864271, "MEAN_MOTION_DOT": 4.45e-06, "MEAN_MOTION_DDOT": 0}, "tle": {"line1": "1 35026U 93036AGP 25345.20472574  .00000445  00000+0  10864-3 0  9991", "line2": "2 35026  74.0466 321.6997 0082300  75.5866 300.6060 14.53621651881211"}}, "geometry": {"type": "Point", "coordinates": [144.30060646892068, -16.54153324181678]}}, {"type": "Feature", "properties": {"norad_id": 35028, "name": "COSMOS 2251 DEB", "group": "cosmos-2251-debris", "lat": -52.49621728996597, "lon": -110.28903952765297, "alt_km": 721.5026880213618, "timestamp": "2025-12-12T09:49:09.127907+00:00", "meta": {"OBJECT_NAME": "COSMOS 2251 DEB", "OBJECT_ID": "1993-036AGR", "EPOCH": "2025-12-11T13:27:35.723232", "MEAN_MOTION": 14.56568093, "ECCENTRICITY": 0.00824318, "INCLINATION": 74.0385, "RA_OF_ASC_NODE": 273.2172, "ARG_OF_PERICENTER": 47.2226, "MEAN_ANOMALY": 131.7918, "EPHEMERIS_TYPE": 0, "CLASSIFICATION_TYPE": "U", "NORAD_CAT_ID": 35028, "ELEMENT_SET_NO": 999, "REV_AT_EPOCH": 88268, "BSTAR": 0.00018279903, "MEAN_MOTION_DOT": 8.22e-06, "MEAN_MOTION_DDOT": 0}, "tle": {"line1": "1 35028U 93036AGR 25345.56083013  .00000822  00000+0  18280-3 0  9997", "line2": "2 35028  74.0385 273.2172 0082431  47.2226 131.7918 14.56568093882681"}}, "geometry": {"type": "Point", "coordinates": [-110.28903952765297, -52.49621728996597]}}, {"type": "Feature", "properties": {"norad_id": 35031, "name": "COSMOS 2251 DEB", "group": "cosmos-2251-debris", "lat": -54.89875846603304, "lon": 103.90410707863683, "alt_km": 776.4350850282672, "timestamp": "2025-12-12T09:49:09.127917+00:00", "meta": {"OBJECT_NAME": "COSMOS 2251 DEB", "OBJECT_ID": "1993-036AGU", "EPOCH": "2025-12-08T11:13:55.739136", "MEAN_MOTION": 14.3828637, "ECCENTRICITY": 0.00186752, "INCLINATION": 74.0383, "RA_OF_ASC_NODE": 267.1323, "ARG_OF_PERICENTER": 1.498, "MEAN_ANOMALY": 358.6226, "EPHEMERIS_TYPE": 0, "CLASSIFICATION_TYPE": "U", "NORAD_CAT_ID": 35031, "ELEMENT_SET_NO": 999, "REV_AT_EPOCH": 65222, "BSTAR": 0.00036337037, "MEAN_MOTION_DOT": 1.081e-05, "MEAN_MOTION_DDOT": 0}, "tle": {"line1": "1 35031U 93036AGU 25342.46800624  .00001081  00000+0  36337-3 0  9993", "line2": "2 35031  74.0383 267.1323 0018675   1.4980 358.6226 14.38286370652223"}}, "geometry": {"type": "Point", "coordinates": [103.90410707863683, -54.89875846603304]}}, {"type": "Feature", "properties": {"norad_id": 35032, "name": "COSMOS 2251 DEB", "group": "cosmos-2251-debris", "lat": 70.54104099913052, "lon": 63.00404820855658, "alt_km": 727.2115665119463, "timestamp": "2025-12-12T09:49:09.127927+00:00", "meta": {"OBJECT_NAME": "COSMOS 2251 DEB", "OBJECT_ID": "1993-036AGV", "EPOCH": "2025-12-11T12:46:07.186368", "MEAN_MOTION": 14.58710532, "ECCENTRICITY": 0.00684583, "INCLINATION": 73.8522, "RA_OF_ASC_NODE": 9.6037, "ARG_OF_PERICENTER": 221.1378, "MEAN_ANOMALY": 294.2432, "EPHEMERIS_TYPE": 0, "CLASSIFICATION_TYPE": "U", "NORAD_CAT_ID": 35032, "ELEMENT_SET_NO": 999, "REV_AT_EPOCH": 87656, "BSTAR": 0.0015734696, "MEAN_MOTION_DOT": 7.56e-05, "MEAN_MOTION_DDOT": 0}, "tle": {"line1": "1 35032U 93036AGV 25345.53202762  .00007560  00000+0  15735-2 0  9990", "line2": "2 35032  73.8522   9.6037 0068458 221.1378 294.2432 14.58710532876566"}}, "geometry": {"type": "Point", "coordinates": [63.00404820855658, 70.54104099913052]}}, {"type": "Feature", "properties": {"norad_id": 35033, "name": "COSMOS 2251 DEB", "group": "cosmos-2251-debris", "lat": 62.70133949880257, "lon": -36.5108848984413, "alt_km": 726.2721630473743, "timestamp": "2025-12-12T09:49:09.127938+00:00", "meta": {"OBJECT_NAME": "COSMOS 2251 DEB", "OBJECT_ID": "1993-036AGW", "EPOCH": "2025-12-09T20:04:28.770240", "MEAN_MOTION": 14.50906436, "ECCENTRICITY": 0.00144326, "INCLINATION": 74.0258, "RA_OF_ASC_NODE": 182.0397, "ARG_OF_PERICENTER": 288.5729, "MEAN_ANOMALY": 71.3864, "EPHEMERIS_TYPE": 0, "CLASSIFICATION_TYPE": "U", "NORAD_CAT_ID": 35033, "ELEMENT_SET_NO": 999, "REV_AT_EPOCH": 65885, "BSTAR": 0.0010175317, "MEAN_MOTION_DOT": 3.996e-05, "MEAN_MOTION_DDOT": 0}, "tle": {"line1": "1 35033U 93036AGW 25343.83644410  .00003996  00000+0  10175-2 0  9994", "line2": "2 35033  74.0258 182.0397 0014432 288.5729  71.3864 14.50906436658856"}}, "geometry": {"type": "Point", "coordinates": [-36.5108848984413, 62.70133949880257]}}]}